start=new Date('2022-06-26T00:00:00.000Z').valueOf();
sats=[{"ELEMENT_SET_NO":"999","MEAN_MOTION":"15.58928782","CENTER_NAME":"EARTH","OBJECT_TYPE":"PAYLOAD","TLE_LINE2":"2 52471  53.2176  16.6365 0001549  47.6298 213.2193 15.58928782  1307","FILE":"3502557","DECAY_DATE":null,"LAUNCH_DATE":"2022-05-06","PERIOD":"92.371","TIME_SYSTEM":"UTC","RCS_SIZE":"LARGE","PERIAPSIS":"389.710","REV_AT_EPOCH":"130","ARG_OF_PERICENTER":"47.6298","EPOCH":"2022-06-25T22:00:00.999936","NORAD_CAT_ID":"52471","BSTAR":"-0.01479900000000","EPHEMERIS_TYPE":"0","RA_OF_ASC_NODE":"16.6365","CLASSIFICATION_TYPE":"U","OBJECT_NAME":"STARLINK-3862","ECCENTRICITY":"0.00015490","GP_ID":"206858087","MEAN_MOTION_DDOT":"0.0000000000000","APOAPSIS":"391.807","MEAN_ANOMALY":"213.2193","INCLINATION":"53.2176","SITE":"AFETR","MEAN_MOTION_DOT":"-0.01064125","OBJECT_ID":"2022-049W","SEMIMAJOR_AXIS":"6768.893","COUNTRY_CODE":"US","MEAN_ELEMENT_THEORY":"SGP4","TLE_LINE1":"1 52471U 22049W   22176.91667824 -.01064125  00000-0 -14799-1 0  9999","REF_FRAME":"TEME"},{"TLE_LINE2":"2 52472  53.2177  16.6651 0001520  48.7296 215.9863 15.58961567  1307","OBJECT_TYPE":"PAYLOAD","MEAN_MOTION":"15.58961567","CENTER_NAME":"EARTH","ELEMENT_SET_NO":"999","DECAY_DATE":null,"FILE":"3502557","RCS_SIZE":"LARGE","PERIOD":"92.369","LAUNCH_DATE":"2022-05-06","TIME_SYSTEM":"UTC","RA_OF_ASC_NODE":"16.6651","EPHEMERIS_TYPE":"0","EPOCH":"2022-06-25T22:00:00.999936","NORAD_CAT_ID":"52472","BSTAR":"-0.01478300000000","ARG_OF_PERICENTER":"48.7296","PERIAPSIS":"389.634","REV_AT_EPOCH":"130","OBJECT_NAME":"STARLINK-3881","CLASSIFICATION_TYPE":"U","MEAN_ANOMALY":"215.9863","APOAPSIS":"391.692","MEAN_MOTION_DDOT":"0.0000000000000","ECCENTRICITY":"0.00015200","GP_ID":"206857881","MEAN_MOTION_DOT":"-0.01064282","SITE":"AFETR","INCLINATION":"53.2177","REF_FRAME":"TEME","SEMIMAJOR_AXIS":"6768.798","COUNTRY_CODE":"US","MEAN_ELEMENT_THEORY":"SGP4","TLE_LINE1":"1 52472U 22049X   22176.91667824 -.01064282  00000-0 -14783-1 0  9997","OBJECT_ID":"2022-049X"},{"CLASSIFICATION_TYPE":"U","OBJECT_NAME":"STARLINK-3879","GP_ID":"206858604","ECCENTRICITY":"0.00016680","MEAN_MOTION_DDOT":"0.0000000000000","APOAPSIS":"391.849","MEAN_ANOMALY":"221.0045","INCLINATION":"53.2177","SITE":"AFETR","MEAN_MOTION_DOT":"-0.01064327","OBJECT_ID":"2022-049Y","TLE_LINE1":"1 52473U 22049Y   22176.91667824 -.01064327  00000-0 -14794-1 0  9990","MEAN_ELEMENT_THEORY":"SGP4","SEMIMAJOR_AXIS":"6768.855","COUNTRY_CODE":"US","REF_FRAME":"TEME","ELEMENT_SET_NO":"999","CENTER_NAME":"EARTH","MEAN_MOTION":"15.58942094","OBJECT_TYPE":"PAYLOAD","TLE_LINE2":"2 52473  53.2177  16.6518 0001668  41.3913 221.0045 15.58942094  1302","FILE":"3502557","DECAY_DATE":null,"PERIOD":"92.370","LAUNCH_DATE":"2022-05-06","TIME_SYSTEM":"UTC","RCS_SIZE":"LARGE","PERIAPSIS":"389.591","ARG_OF_PERICENTER":"41.3913","REV_AT_EPOCH":"130","BSTAR":"-0.01479400000000","EPOCH":"2022-06-25T22:00:00.999936","NORAD_CAT_ID":"52473","EPHEMERIS_TYPE":"0","RA_OF_ASC_NODE":"16.6518"},{"MEAN_ANOMALY":"37.1332","APOAPSIS":"350.994","MEAN_MOTION_DDOT":"0.0000000000000","GP_ID":"206858331","ECCENTRICITY":"0.00019760","OBJECT_NAME":"STARLINK-3855","CLASSIFICATION_TYPE":"U","REF_FRAME":"TEME","MEAN_ELEMENT_THEORY":"SGP4","TLE_LINE1":"1 52474U 22049Z   22176.91667824 -.00047038  00000-0 -33209-3 0  9994","SEMIMAJOR_AXIS":"6727.799","COUNTRY_CODE":"US","OBJECT_ID":"2022-049Z","MEAN_MOTION_DOT":"-0.00047038","SITE":"AFETR","INCLINATION":"53.2151","DECAY_DATE":null,"FILE":"3502557","TLE_LINE2":"2 52474  53.2151  16.3286 0001976  29.7458  37.1332 15.73233560  1303","OBJECT_TYPE":"PAYLOAD","CENTER_NAME":"EARTH","MEAN_MOTION":"15.73233560","ELEMENT_SET_NO":"999","EPHEMERIS_TYPE":"0","RA_OF_ASC_NODE":"16.3286","BSTAR":"-0.00033209000000","NORAD_CAT_ID":"52474","EPOCH":"2022-06-25T22:00:00.999936","ARG_OF_PERICENTER":"29.7458","PERIAPSIS":"348.335","REV_AT_EPOCH":"130","RCS_SIZE":"LARGE","LAUNCH_DATE":"2022-05-06","PERIOD":"91.531","TIME_SYSTEM":"UTC"},{"CLASSIFICATION_TYPE":"U","OBJECT_NAME":"STARLINK-3882","MEAN_MOTION_DDOT":"0.0000000000000","ECCENTRICITY":"0.00015310","GP_ID":"206858434","MEAN_ANOMALY":"216.4224","APOAPSIS":"391.718","SITE":"AFETR","INCLINATION":"53.2177","MEAN_MOTION_DOT":"-0.01064178","SEMIMAJOR_AXIS":"6768.817","COUNTRY_CODE":"US","TLE_LINE1":"1 52475U 22049AA  22176.91667824 -.01064178  00000-0 -14785-1 0  9996","MEAN_ELEMENT_THEORY":"SGP4","OBJECT_ID":"2022-049AA","REF_FRAME":"TEME","MEAN_MOTION":"15.58955135","CENTER_NAME":"EARTH","ELEMENT_SET_NO":"999","TLE_LINE2":"2 52475  53.2177  16.6646 0001531  47.5201 216.4224 15.58955135  1300","OBJECT_TYPE":"PAYLOAD","FILE":"3502557","DECAY_DATE":null,"RCS_SIZE":"LARGE","LAUNCH_DATE":"2022-05-06","PERIOD":"92.370","TIME_SYSTEM":"UTC","PERIAPSIS":"389.646","REV_AT_EPOCH":"130","ARG_OF_PERICENTER":"47.5201","EPHEMERIS_TYPE":"0","RA_OF_ASC_NODE":"16.6646","NORAD_CAT_ID":"52475","EPOCH":"2022-06-25T22:00:00.999936","BSTAR":"-0.01478500000000"},{"DECAY_DATE":null,"FILE":"3502557","TLE_LINE2":"2 52476  53.2153  16.3277 0002257  33.2174  34.8868 15.73168081  1308","OBJECT_TYPE":"PAYLOAD","CENTER_NAME":"EARTH","MEAN_MOTION":"15.73168081","ELEMENT_SET_NO":"999","EPHEMERIS_TYPE":"0","RA_OF_ASC_NODE":"16.3277","BSTAR":"0.00046638000000","NORAD_CAT_ID":"52476","EPOCH":"2022-06-25T22:00:00.999936","ARG_OF_PERICENTER":"33.2174","PERIAPSIS":"348.333","REV_AT_EPOCH":"130","RCS_SIZE":"LARGE","TIME_SYSTEM":"UTC","LAUNCH_DATE":"2022-05-06","PERIOD":"91.535","MEAN_ANOMALY":"34.8868","APOAPSIS":"351.370","MEAN_MOTION_DDOT":"0.0000000000000","GP_ID":"206858228","ECCENTRICITY":"0.00022570","OBJECT_NAME":"STARLINK-3835","CLASSIFICATION_TYPE":"U","REF_FRAME":"TEME","MEAN_ELEMENT_THEORY":"SGP4","TLE_LINE1":"1 52476U 22049AB  22176.91667824  .00065257  00000-0  46638-3 0  9997","COUNTRY_CODE":"US","SEMIMAJOR_AXIS":"6727.986","OBJECT_ID":"2022-049AB","MEAN_MOTION_DOT":"0.00065257","SITE":"AFETR","INCLINATION":"53.2153"},{"EPHEMERIS_TYPE":"0","RA_OF_ASC_NODE":"16.3330","BSTAR":"0.00009819600000","EPOCH":"2022-06-25T22:00:00.999936","NORAD_CAT_ID":"52477","REV_AT_EPOCH":"130","PERIAPSIS":"348.257","ARG_OF_PERICENTER":"21.7533","RCS_SIZE":"LARGE","TIME_SYSTEM":"UTC","LAUNCH_DATE":"2022-05-06","PERIOD":"91.534","DECAY_DATE":null,"FILE":"3502557","TLE_LINE2":"2 52477  53.2155  16.3330 0002273  21.7533  44.5064 15.73190997  1307","OBJECT_TYPE":"PAYLOAD","CENTER_NAME":"EARTH","MEAN_MOTION":"15.73190997","ELEMENT_SET_NO":"999","REF_FRAME":"TEME","MEAN_ELEMENT_THEORY":"SGP4","TLE_LINE1":"1 52477U 22049AC  22176.91667824  .00013177  00000-0  98196-4 0  9999","SEMIMAJOR_AXIS":"6727.921","COUNTRY_CODE":"US","OBJECT_ID":"2022-049AC","MEAN_MOTION_DOT":"0.00013177","SITE":"AFETR","INCLINATION":"53.2155","MEAN_ANOMALY":"44.5064","APOAPSIS":"351.315","MEAN_MOTION_DDOT":"0.0000000000000","GP_ID":"206858539","ECCENTRICITY":"0.00022730","OBJECT_NAME":"STARLINK-3860","CLASSIFICATION_TYPE":"U"},{"TLE_LINE2":"2 52478  53.2177  16.6773 0001582  44.6603 223.0741 15.58956261  1303","OBJECT_TYPE":"PAYLOAD","CENTER_NAME":"EARTH","MEAN_MOTION":"15.58956261","ELEMENT_SET_NO":"999","DECAY_DATE":null,"FILE":"3502557","RCS_SIZE":"LARGE","LAUNCH_DATE":"2022-05-06","PERIOD":"92.369","TIME_SYSTEM":"UTC","EPHEMERIS_TYPE":"0","RA_OF_ASC_NODE":"16.6773","BSTAR":"-0.01478800000000","NORAD_CAT_ID":"52478","EPOCH":"2022-06-25T22:00:00.999936","PERIAPSIS":"389.608","ARG_OF_PERICENTER":"44.6603","REV_AT_EPOCH":"130","OBJECT_NAME":"STARLINK-3825","CLASSIFICATION_TYPE":"U","MEAN_ANOMALY":"223.0741","APOAPSIS":"391.749","MEAN_MOTION_DDOT":"0.0000000000000","GP_ID":"206857985","ECCENTRICITY":"0.00015820","MEAN_MOTION_DOT":"-0.01064432","SITE":"AFETR","INCLINATION":"53.2177","REF_FRAME":"TEME","MEAN_ELEMENT_THEORY":"SGP4","TLE_LINE1":"1 52478U 22049AD  22176.91667824 -.01064432  00000-0 -14788-1 0  9995","SEMIMAJOR_AXIS":"6768.814","COUNTRY_CODE":"US","OBJECT_ID":"2022-049AD"},{"CLASSIFICATION_TYPE":"U","OBJECT_NAME":"STARLINK-3878","MEAN_MOTION_DDOT":"0.0000000000000","GP_ID":"206858088","ECCENTRICITY":"0.00016680","MEAN_ANOMALY":"35.9140","APOAPSIS":"351.114","SITE":"AFETR","INCLINATION":"53.2166","MEAN_MOTION_DOT":"0.00002862","MEAN_ELEMENT_THEORY":"SGP4","TLE_LINE1":"1 52479U 22049AE  22176.91667824  .00002862  00000-0  24884-4 0  9993","SEMIMAJOR_AXIS":"6728.127","COUNTRY_CODE":"US","OBJECT_ID":"2022-049AE","REF_FRAME":"TEME","CENTER_NAME":"EARTH","MEAN_MOTION":"15.73118750","ELEMENT_SET_NO":"999","TLE_LINE2":"2 52479  53.2166  16.3198 0001668  34.7460  35.9140 15.73118750  1309","OBJECT_TYPE":"PAYLOAD","FILE":"3502557","DECAY_DATE":null,"RCS_SIZE":"LARGE","LAUNCH_DATE":"2022-05-06","PERIOD":"91.538","TIME_SYSTEM":"UTC","REV_AT_EPOCH":"130","PERIAPSIS":"348.870","ARG_OF_PERICENTER":"34.7460","EPHEMERIS_TYPE":"0","RA_OF_ASC_NODE":"16.3198","BSTAR":"0.00002488400000","EPOCH":"2022-06-25T22:00:00.999936","NORAD_CAT_ID":"52479"},{"OBJECT_TYPE":"PAYLOAD","TLE_LINE2":"2 52480  53.2177  16.6839 0001405  56.1350 212.8632 15.58956588  1307","ELEMENT_SET_NO":"999","MEAN_MOTION":"15.58956588","CENTER_NAME":"EARTH","DECAY_DATE":null,"FILE":"3502557","LAUNCH_DATE":"2022-05-06","PERIOD":"92.369","TIME_SYSTEM":"UTC","RCS_SIZE":"LARGE","NORAD_CAT_ID":"52480","EPOCH":"2022-06-25T22:00:00.999936","BSTAR":"-0.01478600000000","EPHEMERIS_TYPE":"0","RA_OF_ASC_NODE":"16.6839","PERIAPSIS":"389.727","REV_AT_EPOCH":"130","ARG_OF_PERICENTER":"56.1350","OBJECT_NAME":"STARLINK-3839","CLASSIFICATION_TYPE":"U","APOAPSIS":"391.629","MEAN_ANOMALY":"212.8632","ECCENTRICITY":"0.00014050","GP_ID":"206857882","MEAN_MOTION_DDOT":"0.0000000000000","MEAN_MOTION_DOT":"-0.01064259","INCLINATION":"53.2177","SITE":"AFETR","REF_FRAME":"TEME","OBJECT_ID":"2022-049AF","COUNTRY_CODE":"US","SEMIMAJOR_AXIS":"6768.813","TLE_LINE1":"1 52480U 22049AF  22176.91667824 -.01064259  00000-0 -14786-1 0  9993","MEAN_ELEMENT_THEORY":"SGP4"}];
